STARLINK-36572          
1 67536U 26014E   26038.22414749  .00328448  00000+0  16395-2 0  9996
2 67536  97.2832 281.5948 0001186  93.0172 267.1232 15.80979148  3777
STARLINK-36561          
1 67537U 26014F   26038.25003472  .00015126  00000+0  10216-3 0  9990
2 67537  97.2800 281.6163 0001628 104.9761  33.8772 15.75174841  3790
STARLINK-36397          
1 67538U 26014G   26038.25003472 -.00138132  00000+0 -93785-3 0  9998
2 67538  97.2842 281.6071 0001849  96.4692  20.3708 15.75247105  3792
STARLINK-36573          
1 67539U 26014H   26038.28455108 -.00197990  00000+0 -10627-2 0  9999
2 67539  97.2809 281.6645 0001664  74.5326 285.6126 15.80685257  3788
STARLINK-36585          
1 67540U 26014J   26038.25003472 -.01685775  00000+0 -11982-1 0  9999
2 67540  97.2783 281.6246 0001904  87.1044  74.8003 15.76607495  3798
STARLINK-36579          
1 67541U 26014K   26038.28233041  .00290584  00000+0  14604-2 0  9992
2 67541  97.2838 281.6682 0000891 103.3230 256.8138 15.80927136  3788
STARLINK-35934          
1 67542U 26014L   26038.28090973  .00366215  00000+0  18215-2 0  9995
2 67542  97.2847 281.6692 0002010  90.8734 269.2765 15.80960015  3770
STARLINK-36581          
1 67543U 26014M   26038.27971350  .00205461  00000+0  10437-2 0  9995
2 67543  97.2777 281.6698 0000830  48.9032 311.2308 15.80913609  3781
STARLINK-36565          
1 67544U 26014N   26038.25003472 -.00145763  00000+0 -76983-3 0  9994
2 67544  97.2851 281.6409 0001345  83.2153 114.1390 15.80905348  3796
STARLINK-36583          
1 67545U 26014P   26038.25003472 -.00069599  00000+0 -46786-3 0  9995
2 67545  97.2845 281.6357 0001164  83.9951 100.8051 15.75273735  3792
STARLINK-36580          
1 67546U 26014Q   26038.25003472 -.00017637  00000+0 -91536-4 0  9996
2 67546  97.2806 281.6452 0001093  81.5756 129.6443 15.80813280  3799
STARLINK-36584          
1 67547U 26014R   26038.25003472  .00009782  00000+0  51749-4 0  9999
2 67547  97.2764 281.6477 0002242 102.8340 113.8738 15.80814421  3793
