CCSDS_OMM_VERS = 2.0
CREATION_DATE  = 
ORIGINATOR     = 

OBJECT_NAME    = STARLINK-36572
OBJECT_ID      = 2026-014E
CENTER_NAME    = EARTH
REF_FRAME      = TEME
TIME_SYSTEM    = UTC
MEAN_ELEMENT_THEORY = SGP/SGP4

EPOCH          = 2026-02-07T05:22:46.343136
MEAN_MOTION    = 15.80979148
ECCENTRICITY   = .00011864
INCLINATION    = 97.2832
RA_OF_ASC_NODE = 281.5948
ARG_OF_PERICENTER = 93.0172
MEAN_ANOMALY   = 267.1232

EPHEMERIS_TYPE = 0
CLASSIFICATION_TYPE = U
NORAD_CAT_ID   = 67536
ELEMENT_SET_NO = 999
REV_AT_EPOCH   = 377
BSTAR          = .16394607E-2
MEAN_MOTION_DOT = .328448E-2
MEAN_MOTION_DDOT = 0

CCSDS_OMM_VERS = 2.0
CREATION_DATE  = 
ORIGINATOR     = 

OBJECT_NAME    = STARLINK-36561
OBJECT_ID      = 2026-014F
CENTER_NAME    = EARTH
REF_FRAME      = TEME
TIME_SYSTEM    = UTC
MEAN_ELEMENT_THEORY = SGP/SGP4

EPOCH          = 2026-02-07T06:00:02.999808
MEAN_MOTION    = 15.75174841
ECCENTRICITY   = .00016283
INCLINATION    = 97.2800
RA_OF_ASC_NODE = 281.6163
ARG_OF_PERICENTER = 104.9761
MEAN_ANOMALY   = 33.8772

EPHEMERIS_TYPE = 0
CLASSIFICATION_TYPE = U
NORAD_CAT_ID   = 67537
ELEMENT_SET_NO = 999
REV_AT_EPOCH   = 379
BSTAR          = .10216387E-3
MEAN_MOTION_DOT = .15126E-3
MEAN_MOTION_DDOT = 0

CCSDS_OMM_VERS = 2.0
CREATION_DATE  = 
ORIGINATOR     = 

OBJECT_NAME    = STARLINK-36397
OBJECT_ID      = 2026-014G
CENTER_NAME    = EARTH
REF_FRAME      = TEME
TIME_SYSTEM    = UTC
MEAN_ELEMENT_THEORY = SGP/SGP4

EPOCH          = 2026-02-07T06:00:02.999808
MEAN_MOTION    = 15.75247105
ECCENTRICITY   = .00018497
INCLINATION    = 97.2842
RA_OF_ASC_NODE = 281.6071
ARG_OF_PERICENTER = 96.4692
MEAN_ANOMALY   = 20.3708

EPHEMERIS_TYPE = 0
CLASSIFICATION_TYPE = U
NORAD_CAT_ID   = 67538
ELEMENT_SET_NO = 999
REV_AT_EPOCH   = 379
BSTAR          = -.9378528E-3
MEAN_MOTION_DOT = -.138132E-2
MEAN_MOTION_DDOT = 0

CCSDS_OMM_VERS = 2.0
CREATION_DATE  = 
ORIGINATOR     = 

OBJECT_NAME    = STARLINK-36573
OBJECT_ID      = 2026-014H
CENTER_NAME    = EARTH
REF_FRAME      = TEME
TIME_SYSTEM    = UTC
MEAN_ELEMENT_THEORY = SGP/SGP4

EPOCH          = 2026-02-07T06:49:45.213312
MEAN_MOTION    = 15.80685257
ECCENTRICITY   = .0001664
INCLINATION    = 97.2809
RA_OF_ASC_NODE = 281.6645
ARG_OF_PERICENTER = 74.5326
MEAN_ANOMALY   = 285.6126

EPHEMERIS_TYPE = 0
CLASSIFICATION_TYPE = U
NORAD_CAT_ID   = 67539
ELEMENT_SET_NO = 999
REV_AT_EPOCH   = 378
BSTAR          = -.10627489E-2
MEAN_MOTION_DOT = -.19799E-2
MEAN_MOTION_DDOT = 0

CCSDS_OMM_VERS = 2.0
CREATION_DATE  = 
ORIGINATOR     = 

OBJECT_NAME    = STARLINK-36585
OBJECT_ID      = 2026-014J
CENTER_NAME    = EARTH
REF_FRAME      = TEME
TIME_SYSTEM    = UTC
MEAN_ELEMENT_THEORY = SGP/SGP4

EPOCH          = 2026-02-07T06:00:02.999808
MEAN_MOTION    = 15.76607495
ECCENTRICITY   = .00019041
INCLINATION    = 97.2783
RA_OF_ASC_NODE = 281.6246
ARG_OF_PERICENTER = 87.1044
MEAN_ANOMALY   = 74.8003

EPHEMERIS_TYPE = 0
CLASSIFICATION_TYPE = U
NORAD_CAT_ID   = 67540
ELEMENT_SET_NO = 999
REV_AT_EPOCH   = 379
BSTAR          = -.11982124E-1
MEAN_MOTION_DOT = -.1685775E-1
MEAN_MOTION_DDOT = 0

CCSDS_OMM_VERS = 2.0
CREATION_DATE  = 
ORIGINATOR     = 

OBJECT_NAME    = STARLINK-36579
OBJECT_ID      = 2026-014K
CENTER_NAME    = EARTH
REF_FRAME      = TEME
TIME_SYSTEM    = UTC
MEAN_ELEMENT_THEORY = SGP/SGP4

EPOCH          = 2026-02-07T06:46:33.347424
MEAN_MOTION    = 15.80927136
ECCENTRICITY   = .00008917
INCLINATION    = 97.2838
RA_OF_ASC_NODE = 281.6682
ARG_OF_PERICENTER = 103.3230
MEAN_ANOMALY   = 256.8138

EPHEMERIS_TYPE = 0
CLASSIFICATION_TYPE = U
NORAD_CAT_ID   = 67541
ELEMENT_SET_NO = 999
REV_AT_EPOCH   = 378
BSTAR          = .14603736E-2
MEAN_MOTION_DOT = .290584E-2
MEAN_MOTION_DDOT = 0

CCSDS_OMM_VERS = 2.0
CREATION_DATE  = 
ORIGINATOR     = 

OBJECT_NAME    = STARLINK-35934
OBJECT_ID      = 2026-014L
CENTER_NAME    = EARTH
REF_FRAME      = TEME
TIME_SYSTEM    = UTC
MEAN_ELEMENT_THEORY = SGP/SGP4

EPOCH          = 2026-02-07T06:44:30.600672
MEAN_MOTION    = 15.80960015
ECCENTRICITY   = .00020106
INCLINATION    = 97.2847
RA_OF_ASC_NODE = 281.6692
ARG_OF_PERICENTER = 90.8734
MEAN_ANOMALY   = 269.2765

EPHEMERIS_TYPE = 0
CLASSIFICATION_TYPE = U
NORAD_CAT_ID   = 67542
ELEMENT_SET_NO = 999
REV_AT_EPOCH   = 377
BSTAR          = .1821515E-2
MEAN_MOTION_DOT = .366215E-2
MEAN_MOTION_DDOT = 0

CCSDS_OMM_VERS = 2.0
CREATION_DATE  = 
ORIGINATOR     = 

OBJECT_NAME    = STARLINK-36581
OBJECT_ID      = 2026-014M
CENTER_NAME    = EARTH
REF_FRAME      = TEME
TIME_SYSTEM    = UTC
MEAN_ELEMENT_THEORY = SGP/SGP4

EPOCH          = 2026-02-07T06:42:47.246400
MEAN_MOTION    = 15.80913609
ECCENTRICITY   = .00008304
INCLINATION    = 97.2777
RA_OF_ASC_NODE = 281.6698
ARG_OF_PERICENTER = 48.9032
MEAN_ANOMALY   = 311.2308

EPHEMERIS_TYPE = 0
CLASSIFICATION_TYPE = U
NORAD_CAT_ID   = 67543
ELEMENT_SET_NO = 999
REV_AT_EPOCH   = 378
BSTAR          = .10436679E-2
MEAN_MOTION_DOT = .205461E-2
MEAN_MOTION_DDOT = 0

CCSDS_OMM_VERS = 2.0
CREATION_DATE  = 
ORIGINATOR     = 

OBJECT_NAME    = STARLINK-36565
OBJECT_ID      = 2026-014N
CENTER_NAME    = EARTH
REF_FRAME      = TEME
TIME_SYSTEM    = UTC
MEAN_ELEMENT_THEORY = SGP/SGP4

EPOCH          = 2026-02-07T06:00:02.999808
MEAN_MOTION    = 15.80905348
ECCENTRICITY   = .00013457
INCLINATION    = 97.2851
RA_OF_ASC_NODE = 281.6409
ARG_OF_PERICENTER = 83.2153
MEAN_ANOMALY   = 114.1390

EPHEMERIS_TYPE = 0
CLASSIFICATION_TYPE = U
NORAD_CAT_ID   = 67544
ELEMENT_SET_NO = 999
REV_AT_EPOCH   = 379
BSTAR          = -.76983061E-3
MEAN_MOTION_DOT = -.145763E-2
MEAN_MOTION_DDOT = 0

CCSDS_OMM_VERS = 2.0
CREATION_DATE  = 
ORIGINATOR     = 

OBJECT_NAME    = STARLINK-36583
OBJECT_ID      = 2026-014P
CENTER_NAME    = EARTH
REF_FRAME      = TEME
TIME_SYSTEM    = UTC
MEAN_ELEMENT_THEORY = SGP/SGP4

EPOCH          = 2026-02-07T06:00:02.999808
MEAN_MOTION    = 15.75273735
ECCENTRICITY   = .00011643
INCLINATION    = 97.2845
RA_OF_ASC_NODE = 281.6357
ARG_OF_PERICENTER = 83.9951
MEAN_ANOMALY   = 100.8051

EPHEMERIS_TYPE = 0
CLASSIFICATION_TYPE = U
NORAD_CAT_ID   = 67545
ELEMENT_SET_NO = 999
REV_AT_EPOCH   = 379
BSTAR          = -.46785804E-3
MEAN_MOTION_DOT = -.69599E-3
MEAN_MOTION_DDOT = 0

CCSDS_OMM_VERS = 2.0
CREATION_DATE  = 
ORIGINATOR     = 

OBJECT_NAME    = STARLINK-36580
OBJECT_ID      = 2026-014Q
CENTER_NAME    = EARTH
REF_FRAME      = TEME
TIME_SYSTEM    = UTC
MEAN_ELEMENT_THEORY = SGP/SGP4

EPOCH          = 2026-02-07T06:00:02.999808
MEAN_MOTION    = 15.80813280
ECCENTRICITY   = .00010937
INCLINATION    = 97.2806
RA_OF_ASC_NODE = 281.6452
ARG_OF_PERICENTER = 81.5756
MEAN_ANOMALY   = 129.6443

EPHEMERIS_TYPE = 0
CLASSIFICATION_TYPE = U
NORAD_CAT_ID   = 67546
ELEMENT_SET_NO = 999
REV_AT_EPOCH   = 379
BSTAR          = -.91536247E-4
MEAN_MOTION_DOT = -.17637E-3
MEAN_MOTION_DDOT = 0

CCSDS_OMM_VERS = 2.0
CREATION_DATE  = 
ORIGINATOR     = 

OBJECT_NAME    = STARLINK-36584
OBJECT_ID      = 2026-014R
CENTER_NAME    = EARTH
REF_FRAME      = TEME
TIME_SYSTEM    = UTC
MEAN_ELEMENT_THEORY = SGP/SGP4

EPOCH          = 2026-02-07T06:00:02.999808
MEAN_MOTION    = 15.80814421
ECCENTRICITY   = .00022426
INCLINATION    = 97.2764
RA_OF_ASC_NODE = 281.6477
ARG_OF_PERICENTER = 102.8340
MEAN_ANOMALY   = 113.8738

EPHEMERIS_TYPE = 0
CLASSIFICATION_TYPE = U
NORAD_CAT_ID   = 67547
ELEMENT_SET_NO = 999
REV_AT_EPOCH   = 379
BSTAR          = .51748878E-4
MEAN_MOTION_DOT = .9782E-4
MEAN_MOTION_DDOT = 0

